CTC2_L_00378001-01
1 29559U 22609YM  26037.47795139  .00000000  00000+0  00000-0 0  9991
2 29559  45.0000   0.0000 0000000   0.0000   0.0000 13.03091717    14
CTC2_L_00378001-02
1 29560U 24792YN  26037.47795139  .00000000  00000+0  00000-0 0  9998
2 29560  45.0000   0.0000 0000000   0.0000  90.0000 13.03091717    15
CTC2_L_00378001-03
1 29561U 26948XG  26037.47795139  .00000000  00000+0  00000-0 0  9994
2 29561  45.0000   0.0000 0000000   0.0000 180.0000 13.03091717    16
CTC2_L_00378001-04
1 29562U 22095Q   26037.47795139  .00000000  00000+0  00000-0 0  9994
2 29562  45.0000   0.0000 0000000   0.0000 270.0000 13.03091717    17
CTC2_L_00378002-01
1 29563U 22045VP  26037.47795139  .00000000  00000+0  00000-0 0  9990
2 29563  45.0000  12.0000 0000000   0.0000  12.0000 13.03091717    15
CTC2_L_00378002-02
1 29564U 24834EU  26037.47795139  .00000000  00000+0  00000-0 0  9999
2 29564  45.0000  12.0000 0000000   0.0000 102.0000 13.03091717    16
CTC2_L_00378002-03
1 29565U 24005BQ  26037.47795139  .00000000  00000+0  00000-0 0  9990
2 29565  45.0000  12.0000 0000000   0.0000 192.0000 13.03091717    16
CTC2_L_00378002-04
1 29566U 25507FI  26037.47795139  .00000000  00000+0  00000-0 0  9999
2 29566  45.0000  12.0000 0000000   0.0000 282.0000 13.03091717    17
CTC2_L_00378003-01
1 29567U 26627EH  26037.47795139  .00000000  00000+0  00000-0 0  9994
2 29567  45.0000  24.0000 0000000   0.0000  24.0000 13.03091717    15
CTC2_L_00378003-02
1 29568U 22503FR  26037.47795139  .00000000  00000+0  00000-0 0  9994
2 29568  45.0000  24.0000 0000000   0.0000 114.0000 13.03091717    16
CTC2_L_00378003-03
1 29569U 26527QC  26037.47795139  .00000000  00000+0  00000-0 0  9995
2 29569  45.0000  24.0000 0000000   0.0000 204.0000 13.03091717    17
CTC2_L_00378003-04
1 29570U 23047NQ  26037.47795139  .00000000  00000+0  00000-0 0  9991
2 29570  45.0000  24.0000 0000000   0.0000 294.0000 13.03091717    18
CTC2_L_00378004-01
1 29571U 23546ZW  26037.47795139  .00000000  00000+0  00000-0 0  9996
2 29571  45.0000  36.0000 0000000   0.0000  36.0000 13.03091717    16
CTC2_L_00378004-02
1 29572U 23621OJ  26037.47795139  .00000000  00000+0  00000-0 0  9991
2 29572  45.0000  36.0000 0000000   0.0000 126.0000 13.03091717    17
CTC2_L_00378004-03
1 29573U 25876TV  26037.47795139  .00000000  00000+0  00000-0 0  9996
2 29573  45.0000  36.0000 0000000   0.0000 216.0000 13.03091717    18
CTC2_L_00378004-04
1 29574U 23314RR  26037.47795139  .00000000  00000+0  00000-0 0  9992
2 29574  45.0000  36.0000 0000000   0.0000 306.0000 13.03091717    19
CTC2_L_00378005-01
1 29575U 25641DW  26037.47795139  .00000000  00000+0  00000-0 0  9998
2 29575  45.0000  48.0000 0000000   0.0000  48.0000 13.03091717    16
CTC2_L_00378005-02
1 29576U 22281RI  26037.47795139  .00000000  00000+0  00000-0 0  9996
2 29576  45.0000  48.0000 0000000   0.0000 138.0000 13.03091717    17
CTC2_L_00378005-03
1 29577U 24622FK  26037.47795139  .00000000  00000+0  00000-0 0  9998
2 29577  45.0000  48.0000 0000000   0.0000 228.0000 13.03091717    18
CTC2_L_00378005-04
1 29578U 25751KQ  26037.47795139  .00000000  00000+0  00000-0 0  9993
2 29578  45.0000  48.0000 0000000   0.0000 318.0000 13.03091717    19
CTC2_L_00378006-01
1 29579U 24442UB  26037.47795139  .00000000  00000+0  00000-0 0  9990
2 29579  45.0000  60.0000 0000000   0.0000  60.0000 13.03091717    18
CTC2_L_00378006-02
1 29580U 26613IM  26037.47795139  .00000000  00000+0  00000-0 0  9994
2 29580  45.0000  60.0000 0000000   0.0000 150.0000 13.03091717    10
CTC2_L_00378006-03
1 29581U 26590VH  26037.47795139  .00000000  00000+0  00000-0 0  9999
2 29581  45.0000  60.0000 0000000   0.0000 240.0000 13.03091717    11
CTC2_L_00378006-04
1 29582U 23284RJ  26037.47795139  .00000000  00000+0  00000-0 0  9997
2 29582  45.0000  60.0000 0000000   0.0000 330.0000 13.03091717    12
CTC2_L_00378007-01
1 29583U 25707AJ  26037.47795139  .00000000  00000+0  00000-0 0  9990
2 29583  45.0000  72.0000 0000000   0.0000  72.0000 13.03091717    19
CTC2_L_00378007-02
1 29584U 24979UF  26037.47795139  .00000000  00000+0  00000-0 0  9991
2 29584  45.0000  72.0000 0000000   0.0000 162.0000 13.03091717    10
CTC2_L_00378007-03
1 29585U 23365WE  26037.47795139  .00000000  00000+0  00000-0 0  9990
2 29585  45.0000  72.0000 0000000   0.0000 252.0000 13.03091717    11
CTC2_L_00378007-04
1 29586U 26216GR  26037.47795139  .00000000  00000+0  00000-0 0  9999
2 29586  45.0000  72.0000 0000000   0.0000 342.0000 13.03091717    12
CTC2_L_00378008-01
1 29587U 24764PP  26037.47795139  .00000000  00000+0  00000-0 0  9996
2 29587  45.0000  84.0000 0000000   0.0000  84.0000 13.03091717    19
CTC2_L_00378008-02
1 29588U 26347WX  26037.47795139  .00000000  00000+0  00000-0 0  9996
2 29588  45.0000  84.0000 0000000   0.0000 174.0000 13.03091717    10
CTC2_L_00378008-03
1 29589U 26218UJ  26037.47795139  .00000000  00000+0  00000-0 0  9994
2 29589  45.0000  84.0000 0000000   0.0000 264.0000 13.03091717    11
CTC2_L_00378008-04
1 29590U 24439OM  26037.47795139  .00000000  00000+0  00000-0 0  9999
2 29590  45.0000  84.0000 0000000   0.0000 354.0000 13.03091717    13
CTC2_L_00378009-01
1 29591U 23500NU  26037.47795139  .00000000  00000+0  00000-0 0  9998
2 29591  45.0000  96.0000 0000000   0.0000  96.0000 13.03091717    10
CTC2_L_00378009-02
1 29592U 24186XO  26037.47795139  .00000000  00000+0  00000-0 0  9990
2 29592  45.0000  96.0000 0000000   0.0000 186.0000 13.03091717    11
CTC2_L_00378009-03
1 29593U 22960WO  26037.47795139  .00000000  00000+0  00000-0 0  9999
2 29593  45.0000  96.0000 0000000   0.0000 276.0000 13.03091717    12
CTC2_L_00378009-04
1 29594U 22198AS  26037.47795139  .00000000  00000+0  00000-0 0  9993
2 29594  45.0000  96.0000 0000000   0.0000   6.0000 13.03091717    14
CTC2_L_00378010-01
1 29595U 24159WN  26037.47795139  .00000000  00000+0  00000-0 0  9993
2 29595  45.0000 108.0000 0000000   0.0000 108.0000 13.03091717    12
CTC2_L_00378010-02
1 29596U 26536SG  26037.47795139  .00000000  00000+0  00000-0 0  9995
2 29596  45.0000 108.0000 0000000   0.0000 198.0000 13.03091717    12
CTC2_L_00378010-03
1 29597U 25200AN  26037.47795139  .00000000  00000+0  00000-0 0  9993
2 29597  45.0000 108.0000 0000000   0.0000 288.0000 13.03091717    13
CTC2_L_00378010-04
1 29598U 25967XD  26037.47795139  .00000000  00000+0  00000-0 0  9994
2 29598  45.0000 108.0000 0000000   0.0000  18.0000 13.03091717    15
CTC2_L_00378011-01
1 29599U 24599QM  26037.47795139  .00000000  00000+0  00000-0 0  9995
2 29599  45.0000 120.0000 0000000   0.0000 120.0000 13.03091717    14
CTC2_L_00378011-02
1 29600U 25486AL  26037.47795139  .00000000  00000+0  00000-0 0  9994
2 29600  45.0000 120.0000 0000000   0.0000 210.0000 13.03091717    17
CTC2_L_00378011-03
1 29601U 24658OX  26037.47795139  .00000000  00000+0  00000-0 0  9995
2 29601  45.0000 120.0000 0000000   0.0000 300.0000 13.03091717    18
CTC2_L_00378011-04
1 29602U 23246BM  26037.47795139  .00000000  00000+0  00000-0 0  9998
2 29602  45.0000 120.0000 0000000   0.0000  30.0000 13.03091717    19
CTC2_L_00378012-01
1 29603U 24382XR  26037.47795139  .00000000  00000+0  00000-0 0  9991
2 29603  45.0000 132.0000 0000000   0.0000 132.0000 13.03091717    16
CTC2_L_00378012-02
1 29604U 22123XQ  26037.47795139  .00000000  00000+0  00000-0 0  9993
2 29604  45.0000 132.0000 0000000   0.0000 222.0000 13.03091717    17
CTC2_L_00378012-03
1 29605U 22436ZN  26037.47795139  .00000000  00000+0  00000-0 0  9991
2 29605  45.0000 132.0000 0000000   0.0000 312.0000 13.03091717    18
CTC2_L_00378012-04
1 29606U 22959IJ  26037.47795139  .00000000  00000+0  00000-0 0  9992
2 29606  45.0000 132.0000 0000000   0.0000  42.0000 13.03091717    19
CTC2_L_00378013-01
1 29607U 24773CC  26037.47795139  .00000000  00000+0  00000-0 0  9999
2 29607  45.0000 144.0000 0000000   0.0000 144.0000 13.03091717    16
CTC2_L_00378013-02
1 29608U 24875ZA  26037.47795139  .00000000  00000+0  00000-0 0  9993
2 29608  45.0000 144.0000 0000000   0.0000 234.0000 13.03091717    17
CTC2_L_00378013-03
1 29609U 25125ZO  26037.47795139  .00000000  00000+0  00000-0 0  9993
2 29609  45.0000 144.0000 0000000   0.0000 324.0000 13.03091717    18
CTC2_L_00378013-04
1 29610U 26137MA  26037.47795139  .00000000  00000+0  00000-0 0  9999
2 29610  45.0000 144.0000 0000000   0.0000  54.0000 13.03091717    10
CTC2_L_00378014-01
1 29611U 22139EG  26037.47795139  .00000000  00000+0  00000-0 0  9998
2 29611  45.0000 156.0000 0000000   0.0000 156.0000 13.03091717    17
CTC2_L_00378014-02
1 29612U 24440TL  26037.47795139  .00000000  00000+0  00000-0 0  9996
2 29612  45.0000 156.0000 0000000   0.0000 246.0000 13.03091717    18
CTC2_L_00378014-03
1 29613U 24805LI  26037.47795139  .00000000  00000+0  00000-0 0  9992
2 29613  45.0000 156.0000 0000000   0.0000 336.0000 13.03091717    19
CTC2_L_00378014-04
1 29614U 26118RP  26037.47795139  .00000000  00000+0  00000-0 0  9992
2 29614  45.0000 156.0000 0000000   0.0000  66.0000 13.03091717    10
CTC2_L_00378015-01
1 29615U 25950VI  26037.47795139  .00000000  00000+0  00000-0 0  9996
2 29615  45.0000 168.0000 0000000   0.0000 168.0000 13.03091717    17
CTC2_L_00378015-02
1 29616U 25542GD  26037.47795139  .00000000  00000+0  00000-0 0  9994
2 29616  45.0000 168.0000 0000000   0.0000 258.0000 13.03091717    18
CTC2_L_00378015-03
1 29617U 23057FS  26037.47795139  .00000000  00000+0  00000-0 0  9994
2 29617  45.0000 168.0000 0000000   0.0000 348.0000 13.03091717    19
CTC2_L_00378015-04
1 29618U 24139JF  26037.47795139  .00000000  00000+0  00000-0 0  9997
2 29618  45.0000 168.0000 0000000   0.0000  78.0000 13.03091717    10
CTC2_L_00378016-01
1 29619U 26796XD  26037.47795139  .00000000  00000+0  00000-0 0  9999
2 29619  45.0000 180.0000 0000000   0.0000 180.0000 13.03091717    19
CTC2_L_00378016-02
1 29620U 25993IC  26037.47795139  .00000000  00000+0  00000-0 0  9999
2 29620  45.0000 180.0000 0000000   0.0000 270.0000 13.03091717    11
